NORAD_CAT_ID,OBJECT_NAME,OBJECT_TYPE,EPOCH,MEAN_MOTION,ECCENTRICITY,INCLINATION,RA_OF_ASC_NODE,ARG_OF_PERICENTER,MEAN_ANOMALY,BSTAR,MEAN_MOTION_DOT,MEAN_MOTION_DDOT,TLE_LINE0,TLE_LINE1,TLE_LINE2,SEMIMAJOR_AXIS,PERIOD,APOGEE,PERIGEE,DECAYED
55924.0,STARLINK-5849,PAYLOAD,2023-08-10 05:08:45,14.9933097,0.0002329,69.9978,140.8868,265.5586,94.5308,-0.00050634,-6.288e-05,0.0,0 STARLINK-5849,1 55924U 23037L   23222.21441909 -.00006288  00000-0 -50634-3 0  9998,2 55924  69.9978 140.8868 0002329 265.5586  94.5308 14.99330970 23147,6947.099,96.043,570.582,567.346,0.0
55924.0,STARLINK-5849,PAYLOAD,2023-08-10 17:57:21,14.99300682,0.0002011,69.9978,139.5393,273.8359,86.2571,1.0129e-05,3e-07,0.0,0 STARLINK-5849,1 55924U 23037L   23222.74816019  .00000030  00000-0  10129-4 0  9997,2 55924  69.9978 139.5393 0002011 273.8359  86.2571 14.99300682 23229,6947.193,96.045,570.455,567.661,0.0
55924.0,STARLINK-5849,PAYLOAD,2023-08-11 17:58:26,14.99293092,0.000264,70.0014,137.014,267.2571,92.8287,4.4457e-06,-3.9e-07,0.0,0 STARLINK-5849,1 55924U 23037L   23223.74891565 -.00000039  00000-0  44457-5 0  9999,2 55924  70.0014 137.0140 0002640 267.2571  92.8287 14.99293092 23376,6947.216,96.045,570.915,567.247,0.0
55924.0,STARLINK-5849,PAYLOAD,2023-08-13 00:23:48,14.99301034,0.0002423,70.0003,133.8124,270.3229,89.7653,-2.2499e-05,-3.69e-06,0.0,0 STARLINK-5849,1 55924U 23037L   23225.01653287 -.00000369  00000-0 -22499-4 0  9996,2 55924  70.0003 133.8124 0002423 270.3229  89.7653 14.99301034 23563,6947.192,96.045,570.74,567.373,0.0
55924.0,STARLINK-5849,PAYLOAD,2023-08-14 00:24:53,14.99299389,0.0002512,69.9999,131.2843,269.5239,90.5633,3.3509e-05,3.16e-06,0.0,0 STARLINK-5849,1 55924U 23037L   23226.01728488  .00000316  00000-0  33509-4 0  9997,2 55924  69.9999 131.2843 0002512 269.5239  90.5633 14.99299389 23718,6947.197,96.045,570.807,567.317,0.0
55924.0,STARLINK-5849,PAYLOAD,2023-08-15 02:02:35,14.98895975,0.0003026,69.9978,128.5892,280.4232,79.6586,-0.0044361,-0.000534,0.0,0 STARLINK-5849,1 55924U 23037L   23227.08512888 -.00053400  00000-0 -44361-2 0  9990,2 55924  69.9978 128.5892 0003026 280.4232  79.6586 14.98895975 23878,6948.443,96.071,572.411,568.206,0.0
55924.0,STARLINK-5849,PAYLOAD,2023-08-15 03:38:48,14.98813242,0.000299,69.9995,128.4217,274.5706,85.5111,-0.0051454,-0.00061717,0.0,0 STARLINK-5849,1 55924U 23037L   23227.15194455 -.00061717  00000-0 -51454-2 0  9995,2 55924  69.9995 128.4217 0002990 274.5706  85.5111 14.98813242 23884,6948.699,96.076,572.642,568.486,0.0
55924.0,STARLINK-5849,PAYLOAD,2023-08-15 18:03:39,14.98759761,0.0003095,69.9986,126.9064,270.593,89.4875,-0.0052686,-0.00063093,0.0,0 STARLINK-5849,1 55924U 23037L   23227.75254025 -.00063093  00000-0 -52686-2 0  9998,2 55924  69.9986 126.9064 0003095 270.5930  89.4875 14.98759761 23974,6948.864,96.079,572.88,568.579,0.0
55924.0,STARLINK-5849,PAYLOAD,2023-08-16 02:06:32,14.96906561,0.0004968,69.9985,126.0697,172.8492,187.2738,-0.025783,-0.00284958,0.0,0 STARLINK-5849,1 55924U 23037L   23228.08787314 -.00284958  00000-0 -25783-1 0  9999,2 55924  69.9985 126.0697 0004968 172.8492 187.2738 14.96906561 24025,6954.598,96.198,579.918,573.008,0.0
55924.0,STARLINK-5849,PAYLOAD,2023-08-16 22:00:00,14.98363245,0.0003014,70.0011,123.9711,271.4323,246.7798,-0.004795,-0.00056893,0.0,0 STARLINK-5849,1 55924U 23037L   23228.91667824 -.00056893  00000-0 -47950-2 0  9990,2 55924  70.0011 123.9711 0003014 271.4323 246.7798 14.98363245 24150,6950.09,96.105,574.05,569.86,0.0
55924.0,STARLINK-5849,PAYLOAD,2023-08-17 14:00:01,14.98287391,0.0002981,70.0007,122.2901,269.6281,243.5684,0.006248,0.00075179,0.0,0 STARLINK-5849,1 55924U 23037L   23229.58334491  .00075179  00000-0  62480-2 0  9996,2 55924  70.0007 122.2901 0002981 269.6281 243.5684 14.98287391 24259,6950.325,96.11,574.262,570.118,0.0
55924.0,STARLINK-5849,PAYLOAD,2023-08-18 06:00:02,14.98329498,0.0002988,70.0004,120.6089,274.008,234.1986,-0.001505,-0.00018004,0.0,0 STARLINK-5849,1 55924U 23037L   23230.25002315 -.00018004  00000-0 -15050-2 0  9996,2 55924  70.0004 120.6089 0002988 274.0080 234.1986 14.98329498 24356,6950.194,96.107,574.136,569.983,0.0
55924.0,STARLINK-5849,PAYLOAD,2023-08-18 22:00:00,14.98344931,0.000305,70.0005,118.928,269.6807,233.4097,-0.0026488,-0.00031568,0.0,0 STARLINK-5849,1 55924U 23037L   23230.91667824 -.00031568  00000-0 -26488-2 0  9998,2 55924  70.0005 118.9280 0003050 269.6807 233.4097 14.98344931 24442,6950.147,96.106,574.132,569.892,0.0
55924.0,STARLINK-5849,PAYLOAD,2023-08-19 02:10:13,14.9833223,0.0002996,69.9989,118.4899,271.4513,88.6303,2.0807e-05,1.55e-06,0.0,0 STARLINK-5849,1 55924U 23037L   23231.09043339  .00000155  00000-0  20807-4 0  9994,2 55924  69.9989 118.4899 0002996 271.4513  88.6303 14.98332230 24476,6950.186,96.107,574.133,569.969,0.0
55924.0,STARLINK-5849,PAYLOAD,2023-08-20 02:12:13,14.98343444,0.0002925,69.9996,115.9642,269.0927,90.9897,0.00019393,2.222e-05,0.0,0 STARLINK-5849,1 55924U 23037L   23232.09182058  .00002222  00000-0  19393-3 0  9991,2 55924  69.9996 115.9642 0002925 269.0927  90.9897 14.98343444 24626,6950.151,96.106,574.049,569.983,0.0
55924.0,STARLINK-5849,PAYLOAD,2023-08-20 18:13:34,14.98332513,0.0003075,69.9982,114.2828,268.3839,91.6968,-3.1772e-05,-4.72e-06,0.0,0 STARLINK-5849,1 55924U 23037L   23232.75943183 -.00000472  00000-0 -31772-4 0  9991,2 55924  69.9982 114.2828 0003075 268.3839  91.6968 14.98332513 24723,6950.185,96.107,574.187,569.913,0.0
55924.0,STARLINK-5849,PAYLOAD,2023-08-21 02:14:14,14.98393747,0.0003117,69.9999,113.4421,261.0608,99.0199,-0.0011718,-0.0001407,0.0,0 STARLINK-5849,1 55924U 23037L   23233.09322757 -.00014070  00000-0 -11718-2 0  9992,2 55924  69.9999 113.4421 0003117 261.0608  99.0199 14.98393747 24771,6949.996,96.103,574.027,569.694,0.0
55924.0,STARLINK-5849,PAYLOAD,2023-08-21 18:15:36,14.98343454,0.0002805,69.9999,111.7588,263.8957,96.1883,-0.00025058,-3.083e-05,0.0,0 STARLINK-5849,1 55924U 23037L   23233.76083403 -.00003083  00000-0 -25058-3 0  9993,2 55924  69.9999 111.7588 0002805 263.8957  96.1883 14.98343454 24875,6950.151,96.106,573.966,570.067,0.0
55924.0,STARLINK-5849,PAYLOAD,2023-08-23 00:42:09,14.983252,0.000303,69.999,108.5581,274.1754,85.9059,2.2028e-05,1.7e-06,0.0,0 STARLINK-5849,1 55924U 23037L   23235.02927518  .00000170  00000-0  22028-4 0  9995,2 55924  69.9990 108.5581 0003030 274.1754  85.9059 14.98325200 25066,6950.208,96.107,574.179,569.967,0.0
55924.0,STARLINK-5849,PAYLOAD,2023-08-24 19:57:47,14.98328019,0.0003054,69.9991,104.0127,270.8878,89.1931,-8.8777e-06,-1.99e-06,0.0,0 STARLINK-5849,1 55924U 23037L   23236.83179528 -.00000199  00000-0 -88777-5 0  9992,2 55924  69.9991 104.0127 0003054 270.8878  89.1931 14.98328019 24997,6950.199,96.107,574.187,569.941,0.0
55924.0,STARLINK-5849,PAYLOAD,2023-08-25 10:22:59,14.98332451,0.0003097,69.9989,102.4978,270.132,89.9484,3.9305e-05,3.76e-06,0.0,0 STARLINK-5849,1 55924U 23037L   23237.43263052  .00000376  00000-0  39305-4 0  9992,2 55924  69.9989 102.4978 0003097 270.1320  89.9484 14.98332451 25089,6950.185,96.107,574.203,569.898,0.0
55924.0,STARLINK-5849,PAYLOAD,2023-08-25 18:23:40,14.98320407,0.0003348,69.9988,101.6562,275.5596,84.5181,-0.00012847,-1.625e-05,0.0,0 STARLINK-5849,1 55924U 23037L   23237.76644230 -.00001625  00000-0 -12847-3 0  9990,2 55924  69.9988 101.6562 0003348 275.5596  84.5181 14.98320407 25477,6950.223,96.108,574.414,569.761,0.0
55924.0,STARLINK-5849,PAYLOAD,2023-08-25 19:59:52,14.98272242,0.0003142,69.9988,101.4881,265.4905,94.5895,-0.00066393,-7.994e-05,0.0,0 STARLINK-5849,1 55924U 23037L   23237.83324580 -.00007994  00000-0 -66393-3 0  9991,2 55924  69.9988 101.4881 0003142 265.4905  94.5895 14.98272242 25143,6950.372,96.111,574.42,570.053,0.0
55924.0,STARLINK-5849,PAYLOAD,2023-08-26 00:48:25,14.98173248,0.0002924,69.9987,100.9833,267.9147,92.1677,-0.0017135,-0.00020396,0.0,0 STARLINK-5849,1 55924U 23037L   23238.03362530 -.00020396  00000-0 -17135-2 0  9991,2 55924  69.9987 100.9833 0002924 267.9147  92.1677 14.98173248 25514,6950.678,96.117,574.575,570.51,0.0
55924.0,STARLINK-5849,PAYLOAD,2023-08-26 18:26:36,14.97772293,0.0004949,69.9978,99.1341,294.6262,65.4381,-0.0055562,-0.00064851,0.0,0 STARLINK-5849,1 55924U 23037L   23238.76847629 -.00064851  00000-0 -55562-2 0  9998,2 55924  69.9978  99.1341 0004949 294.6262  65.4381 14.97772293 25622,6951.918,96.143,577.224,570.343,0.0
55924.0,STARLINK-5849,PAYLOAD,2023-08-26 21:39:03,14.97675807,0.0002985,70.0002,98.7964,279.7102,80.3719,-0.0064272,-0.00074697,0.0,0 STARLINK-5849,1 55924U 23037L   23238.90212876 -.00074697  00000-0 -64272-2 0  9991,2 55924  70.0002  98.7964 0002985 279.7102  80.3719 14.97675807 25303,6952.217,96.149,576.157,572.006,0.0
55924.0,STARLINK-5849,PAYLOAD,2023-08-27 00:51:30,14.97593666,0.0003339,69.9973,98.4596,259.6758,100.4024,-0.0071532,-0.00082855,0.0,0 STARLINK-5849,1 55924U 23037L   23239.03577056 -.00082855  00000-0 -71532-2 0  9992,2 55924  69.9973  98.4596 0003339 259.6758 100.4024 14.97593666 25667,6952.471,96.154,576.657,572.014,0.0
55924.0,STARLINK-5849,PAYLOAD,2023-08-27 18:29:54,14.9730066,0.0002972,69.998,96.6119,256.8276,103.2551,-0.008653,-0.0009922,0.0,0 STARLINK-5849,1 55924U 23037L   23239.77077336 -.00099220  00000-0 -86530-2 0  9997,2 55924  69.9980  96.6119 0002972 256.8276 103.2551 14.97300660 25770,6953.378,96.173,577.309,573.176,0.0
55924.0,STARLINK-5849,PAYLOAD,2023-08-27 20:06:07,14.97292094,0.0003575,69.9973,96.4429,272.8039,87.271,-0.0085813,-0.00098394,0.0,0 STARLINK-5849,1 55924U 23037L   23239.83758280 -.00098394  00000-0 -85813-2 0  9992,2 55924  69.9973  96.4429 0003575 272.8039  87.2710 14.97292094 25442,6953.404,96.174,577.755,572.784,0.0
55924.0,STARLINK-5849,PAYLOAD,2023-08-28 06:00:02,14.96731857,0.0003092,70.0003,95.4056,270.4557,152.1713,-0.0040503,-0.00046165,0.0,0 STARLINK-5849,1 55924U 23037L   23240.25002315 -.00046165  00000-0 -40503-2 0  9997,2 55924  70.0003  95.4056 0003092 270.4557 152.1713 14.96731857 25840,6955.139,96.21,579.155,574.854,0.0
